OBJECT_NAME,OBJECT_ID,EPOCH,MEAN_MOTION,ECCENTRICITY,INCLINATION,RA_OF_ASC_NODE,ARG_OF_PERICENTER,MEAN_ANOMALY,EPHEMERIS_TYPE,CLASSIFICATION_TYPE,NORAD_CAT_ID,ELEMENT_SET_NO,REV_AT_EPOCH,BSTAR,MEAN_MOTION_DOT,MEAN_MOTION_DDOT
IRIDIUM 138,2017-083B,2026-06-08T12:36:55.226016,14.34218187,.0002413,86.3973,325.3319,88.6809,271.4663,0,U,43071,999,44289,.77792E-4,.238E-5,0
IRIDIUM 116,2017-083C,2026-06-08T11:51:15.130368,14.34217695,.0001855,86.3958,325.6370,94.1641,265.9767,0,U,43072,999,44292,.65289E-4,.203E-5,0
IRIDIUM 130,2017-083D,2026-06-08T11:05:35.085696,14.34218373,.0001952,86.3968,325.9248,88.1469,271.9950,0,U,43073,999,44286,.79219E-4,.242E-5,0
IRIDIUM 151,2017-083E,2026-06-08T12:09:31.129056,14.34218002,.0002118,86.3960,325.6892,91.7096,268.4342,0,U,43074,999,44289,.34186E-4,.116E-5,0
IRIDIUM 134,2017-083F,2026-06-08T11:23:51.136224,14.34217838,.0001999,86.3956,325.7104,89.3448,270.7977,0,U,43075,999,44285,-.13034E-5,.16E-6,0
IRIDIUM 137,2017-083G,2026-06-08T11:42:07.108128,14.34217378,.0001894,86.3957,325.7977,103.4756,256.6651,0,U,43076,999,44292,-.4892E-6,.18E-6,0
IRIDIUM 141,2017-083H,2026-06-08T11:32:59.181792,14.34217336,.0002117,86.3955,325.6315,90.9883,269.1555,0,U,43077,999,44292,-.85577E-5,-.4E-7,0
IRIDIUM 153,2017-083J,2026-06-08T10:24:07.430112,14.34217607,.0002223,86.3952,294.1317,90.7105,269.4346,0,U,43078,999,44402,-.2115E-5,.14E-6,0
IRIDIUM 131,2017-083K,2026-06-08T11:14:43.145088,14.34217368,.0002098,86.3960,325.8222,92.0388,268.1048,0,U,43079,999,44285,-.16562E-4,-.27E-6,0
IRIDIUM 144,2018-030A,2026-06-08T10:33:15.395328,14.34217172,.0002048,86.3952,294.0584,95.6856,264.4573,0,U,43249,999,42888,-.35195E-4,-.79E-6,0
IRIDIUM 149,2018-030B,2026-06-08T10:42:23.439168,14.34217868,.0002261,86.3952,294.0228,93.2320,266.9134,0,U,43250,999,42890,.12221E-4,.54E-6,0
IRIDIUM 157,2018-030C,2026-06-08T11:09:47.435040,14.34217725,.0002193,86.3952,294.0676,93.8043,266.3404,0,U,43251,999,42888,.8001E-5,.42E-6,0
IRIDIUM 140,2018-030D,2026-06-08T09:56:43.397952,14.34217804,.0002155,86.3952,294.1014,92.2790,267.8652,0,U,43252,999,42893,.76058E-5,.41E-6,0
IRIDIUM 145,2018-030E,2026-06-08T09:38:27.295584,14.34218136,.0001859,86.3951,294.0790,96.7705,263.3702,0,U,43253,999,42886,.57992E-4,.182E-5,0
IRIDIUM 146,2018-030F,2026-06-08T10:51:31.413888,14.34217628,.0002093,86.3953,294.0701,95.0599,265.0836,0,U,43254,999,42888,.34854E-5,.3E-6,0
IRIDIUM 148,2018-030G,2026-06-08T10:05:51.370944,14.34217426,.0002064,86.3951,294.1265,97.1258,263.0173,0,U,43255,999,42891,-.7988E-5,-.3E-7,0
IRIDIUM 142,2018-030H,2026-06-08T11:00:39.371328,14.34217777,.0002037,86.3951,293.9997,96.2073,263.9355,0,U,43256,999,42888,.10561E-4,.49E-6,0
IRIDIUM 150,2018-030J,2026-06-08T10:14:59.409600,14.34217905,.0002167,86.3954,294.1291,92.0808,268.0636,0,U,43257,999,42890,.12619E-4,.55E-6,0
IRIDIUM 143,2018-030K,2026-06-08T09:47:35.382624,14.34218019,.0002104,86.3957,294.2291,94.1452,265.9984,0,U,43258,999,42883,.18159E-4,.71E-6,0
IRIDIUM 161,2018-047C,2026-06-08T05:24:27.417312,14.43278386,.0002539,86.4483,92.2178,88.4674,271.6817,0,U,43478,999,42384,.12197E-3,.43E-5,0
IRIDIUM 152,2018-047D,2026-06-08T07:27:50.292000,14.34217782,.0002378,86.3956,92.0431,84.3653,275.7813,0,U,43479,999,42121,.43329E-5,.32E-6,0
IRIDIUM 147,2018-047E,2026-06-08T07:36:58.243392,14.34217726,.0002141,86.3958,92.0455,84.8948,275.2492,0,U,43480,999,42121,.22347E-4,.82E-6,0
IRIDIUM 110,2018-047F,2026-06-08T07:46:06.316608,14.34217578,.0002465,86.3959,92.1345,86.2249,273.9229,0,U,43481,999,42120,-.2909E-5,.12E-6,0
IRIDIUM 162,2018-047G,2026-06-08T08:35:03.695424,14.43276805,.0002342,86.4477,92.0538,83.5636,276.5831,0,U,43482,999,42385,.95276E-4,.341E-5,0
IRIDIUM 160,2018-061A,2026-06-08T11:29:30.463584,14.34217910,.0002277,86.3967,60.4384,86.5711,273.5745,0,U,43569,999,41212,.62868E-5,.37E-6,0
IRIDIUM 166,2018-061B,2026-06-08T05:24:10.462176,14.34217525,.0002011,86.3967,60.4947,84.7939,275.3486,0,U,43570,999,41211,-.52519E-5,.5E-7,0
IRIDIUM 158,2018-061C,2026-06-08T11:20:22.449120,14.34217677,.0002273,86.3966,60.4016,82.6879,277.4575,0,U,43571,999,41211,.39009E-4,.129E-5,0
IRIDIUM 165,2018-061D,2026-06-08T05:15:02.044224,14.34216234,.0002083,86.3969,60.5536,85.7701,274.3733,0,U,43572,999,41210,.67853E-4,.21E-5,0
IRIDIUM 155,2018-061E,2026-06-08T11:02:06.459936,14.34217722,.0002172,86.3964,60.3222,83.0580,277.0863,0,U,43573,999,41210,.3602E-6,.21E-6,0
IRIDIUM 154,2018-061F,2026-06-08T05:33:18.428256,14.34217919,.0002042,86.3969,60.5513,86.4785,273.6644,0,U,43574,999,41212,.19413E-4,.74E-6,0
IRIDIUM 163,2018-061G,2026-06-08T10:07:17.353632,14.34221249,.0002082,86.3958,60.3859,77.8219,282.3210,0,U,43575,999,41212,.71004E-4,.219E-5,0
