IRIDIUM 138             
1 43071U 17083B   26159.52563919  .00000238  00000+0  77792-4 0  9995
2 43071  86.3973 325.3319 0002413  88.6809 271.4663 14.34218187442893
IRIDIUM 116             
1 43072U 17083C   26159.49392512  .00000203  00000+0  65289-4 0  9991
2 43072  86.3958 325.6370 0001855  94.1641 265.9767 14.34217695442922
IRIDIUM 130             
1 43073U 17083D   26159.46221164  .00000242  00000+0  79219-4 0  9994
2 43073  86.3968 325.9248 0001952  88.1469 271.9950 14.34218373442868
IRIDIUM 151             
1 43074U 17083E   26159.50661029  .00000116  00000+0  34186-4 0  9992
2 43074  86.3960 325.6892 0002118  91.7096 268.4342 14.34218002442892
IRIDIUM 134             
1 43075U 17083F   26159.47489741  .00000016  00000+0 -13034-5 0  9998
2 43075  86.3956 325.7104 0001999  89.3448 270.7977 14.34217838442857
IRIDIUM 137             
1 43076U 17083G   26159.48758227  .00000018  00000+0 -48920-6 0  9993
2 43076  86.3957 325.7977 0001894 103.4756 256.6651 14.34217378442920
IRIDIUM 141             
1 43077U 17083H   26159.48124053 -.00000004  00000+0 -85577-5 0  9992
2 43077  86.3955 325.6315 0002117  90.9883 269.1555 14.34217336442920
IRIDIUM 153             
1 43078U 17083J   26159.43341933  .00000014  00000+0 -21150-5 0  9993
2 43078  86.3952 294.1317 0002223  90.7105 269.4346 14.34217607444028
IRIDIUM 131             
1 43079U 17083K   26159.46855492 -.00000027  00000+0 -16562-4 0  9992
2 43079  86.3960 325.8222 0002098  92.0388 268.1048 14.34217368442851
IRIDIUM 144             
1 43249U 18030A   26159.43976152 -.00000079  00000+0 -35195-4 0  9998
2 43249  86.3952 294.0584 0002048  95.6856 264.4573 14.34217172428885
IRIDIUM 149             
1 43250U 18030B   26159.44610462  .00000054  00000+0  12221-4 0  9996
2 43250  86.3952 294.0228 0002261  93.2320 266.9134 14.34217868428904
IRIDIUM 157             
1 43251U 18030C   26159.46513235  .00000042  00000+0  80010-5 0  9998
2 43251  86.3952 294.0676 0002193  93.8043 266.3404 14.34217725428887
IRIDIUM 140             
1 43252U 18030D   26159.41439118  .00000041  00000+0  76058-5 0  9997
2 43252  86.3952 294.1014 0002155  92.2790 267.8652 14.34217804428930
IRIDIUM 145             
1 43253U 18030E   26159.40170481  .00000182  00000+0  57992-4 0  9993
2 43253  86.3951 294.0790 0001859  96.7705 263.3702 14.34218136428863
IRIDIUM 146             
1 43254U 18030F   26159.45244692  .00000030  00000+0  34854-5 0  9990
2 43254  86.3953 294.0701 0002093  95.0599 265.0836 14.34217628428886
IRIDIUM 148             
1 43255U 18030G   26159.42073346 -.00000003  00000+0 -79880-5 0  9994
2 43255  86.3951 294.1265 0002064  97.1258 263.0173 14.34217426428916
IRIDIUM 142             
1 43256U 18030H   26159.45878902  .00000049  00000+0  10561-4 0  9997
2 43256  86.3951 293.9997 0002037  96.2073 263.9355 14.34217777428887
IRIDIUM 150             
1 43257U 18030J   26159.42707650  .00000055  00000+0  12619-4 0  9999
2 43257  86.3954 294.1291 0002167  92.0808 268.0636 14.34217905428909
IRIDIUM 143             
1 43258U 18030K   26159.40804841  .00000071  00000+0  18159-4 0  9991
2 43258  86.3957 294.2291 0002104  94.1452 265.9984 14.34218019428834
IRIDIUM 161             
1 43478U 18047C   26159.22531733  .00000430  00000+0  12197-3 0  9994
2 43478  86.4483  92.2178 0002539  88.4674 271.6817 14.43278386423845
IRIDIUM 152             
1 43479U 18047D   26159.31099875  .00000032  00000+0  43329-5 0  9992
2 43479  86.3956  92.0431 0002378  84.3653 275.7813 14.34217782421216
IRIDIUM 147             
1 43480U 18047E   26159.31734078  .00000082  00000+0  22347-4 0  9996
2 43480  86.3958  92.0455 0002141  84.8948 275.2492 14.34217726421212
IRIDIUM 110             
1 43481U 18047F   26159.32368422  .00000012  00000+0 -29090-5 0  9991
2 43481  86.3959  92.1345 0002465  86.2249 273.9229 14.34217578421209
IRIDIUM 162             
1 43482U 18047G   26159.35768166  .00000341  00000+0  95276-4 0  9996
2 43482  86.4477  92.0538 0002342  83.5636 276.5831 14.43276805423852
IRIDIUM 160             
1 43569U 18061A   26159.47882481  .00000037  00000+0  62868-5 0  9992
2 43569  86.3967  60.4384 0002277  86.5711 273.5745 14.34217910412124
IRIDIUM 166             
1 43570U 18061B   26159.22512109  .00000005  00000+0 -52519-5 0  9992
2 43570  86.3967  60.4947 0002011  84.7939 275.3486 14.34217525412112
IRIDIUM 158             
1 43571U 18061C   26159.47248205  .00000129  00000+0  39009-4 0  9997
2 43571  86.3966  60.4016 0002273  82.6879 277.4575 14.34217677412119
IRIDIUM 165             
1 43572U 18061D   26159.21877366  .00000210  00000+0  67853-4 0  9995
2 43572  86.3969  60.5536 0002083  85.7701 274.3733 14.34216234412107
IRIDIUM 155             
1 43573U 18061E   26159.45979699  .00000021  00000+0  36020-6 0  9998
2 43573  86.3964  60.3222 0002172  83.0580 277.0863 14.34217722412105
IRIDIUM 154             
1 43574U 18061F   26159.23146329  .00000074  00000+0  19413-4 0  9994
2 43574  86.3969  60.5513 0002042  86.4785 273.6644 14.34217919412125
IRIDIUM 163             
1 43575U 18061G   26159.42172863  .00000219  00000+0  71004-4 0  9993
2 43575  86.3958  60.3859 0002082  77.8219 282.3210 14.34221249412122
